start=new Date('2023-03-07T00:00:00.000Z').valueOf();
sats=[{"REF_FRAME":"TEME","ECCENTRICITY":"0.00017880","EPHEMERIS_TYPE":"0","MEAN_MOTION_DOT":"0.00017193","INCLINATION":"43.0070","OBJECT_TYPE":"PAYLOAD","ARG_OF_PERICENTER":"266.4689","DECAY_DATE":null,"SITE":"AFETR","TLE_LINE1":"1 55713U 23026U   23065.91667824  .00017193  00000-0  19341-3 0  9995","EPOCH":"2023-03-06T22:00:00.999936","MEAN_MOTION":"15.62287557","MEAN_ELEMENT_THEORY":"SGP4","LAUNCH_DATE":"2023-02-27","CLASSIFICATION_TYPE":"U","MEAN_MOTION_DDOT":"0.0000000000000","PERIAPSIS":"379.844","RA_OF_ASC_NODE":"241.6915","REV_AT_EPOCH":"130","COUNTRY_CODE":"US","ELEMENT_SET_NO":"999","OBJECT_NAME":"STARLINK-30063","NORAD_CAT_ID":"55713","APOAPSIS":"382.262","CENTER_NAME":"EARTH","FILE":"3853141","SEMIMAJOR_AXIS":"6759.188","GP_ID":"227630876","MEAN_ANOMALY":"196.0168","TLE_LINE2":"2 55713  43.0070 241.6915 0001788 266.4689 196.0168 15.62287557  1303","PERIOD":"92.173","TIME_SYSTEM":"UTC","RCS_SIZE":null,"BSTAR":"0.00019341000000","OBJECT_ID":"2023-026U"},{"RA_OF_ASC_NODE":"241.6956","REV_AT_EPOCH":"130","COUNTRY_CODE":"US","ELEMENT_SET_NO":"999","OBJECT_NAME":"STARLINK-30059","NORAD_CAT_ID":"55714","APOAPSIS":"382.355","CENTER_NAME":"EARTH","FILE":"3853141","SEMIMAJOR_AXIS":"6759.236","GP_ID":"227630909","MEAN_ANOMALY":"179.5314","TLE_LINE2":"2 55714  43.0070 241.6956 0001855 281.2418 179.5314 15.62270818  1300","PERIOD":"92.174","TIME_SYSTEM":"UTC","RCS_SIZE":"LARGE","BSTAR":"0.00052102000000","OBJECT_ID":"2023-026V","REF_FRAME":"TEME","ECCENTRICITY":"0.00018550","EPHEMERIS_TYPE":"0","INCLINATION":"43.0070","MEAN_MOTION_DOT":"0.00047134","OBJECT_TYPE":"PAYLOAD","ARG_OF_PERICENTER":"281.2418","DECAY_DATE":null,"SITE":"AFETR","TLE_LINE1":"1 55714U 23026V   23065.91667824  .00047134  00000-0  52102-3 0  9996","MEAN_MOTION":"15.62270818","MEAN_ELEMENT_THEORY":"SGP4","EPOCH":"2023-03-06T22:00:00.999936","LAUNCH_DATE":"2023-02-27","CLASSIFICATION_TYPE":"U","MEAN_MOTION_DDOT":"0.0000000000000","PERIAPSIS":"379.847"},{"MEAN_MOTION_DDOT":"0.0000000000000","LAUNCH_DATE":"2023-02-27","CLASSIFICATION_TYPE":"U","PERIAPSIS":"376.416","ECCENTRICITY":"0.00016590","REF_FRAME":"TEME","INCLINATION":"43.0099","MEAN_MOTION_DOT":"-0.00920989","OBJECT_TYPE":"PAYLOAD","EPHEMERIS_TYPE":"0","SITE":"AFETR","DECAY_DATE":null,"ARG_OF_PERICENTER":"278.7973","EPOCH":"2023-03-06T22:00:00.999936","MEAN_MOTION":"15.63507359","MEAN_ELEMENT_THEORY":"SGP4","TLE_LINE1":"1 55715U 23026W   23065.91667824 -.00920989  00000-0 -10639-1 0  9994","FILE":"3853141","SEMIMAJOR_AXIS":"6755.672","NORAD_CAT_ID":"55715","CENTER_NAME":"EARTH","APOAPSIS":"378.658","MEAN_ANOMALY":"205.5845","GP_ID":"227630824","TIME_SYSTEM":"UTC","RCS_SIZE":"LARGE","TLE_LINE2":"2 55715  43.0099 241.6437 0001659 278.7973 205.5845 15.63507359  1308","PERIOD":"92.101","OBJECT_ID":"2023-026W","BSTAR":"-0.01063900000000","RA_OF_ASC_NODE":"241.6437","REV_AT_EPOCH":"130","COUNTRY_CODE":"US","ELEMENT_SET_NO":"999","OBJECT_NAME":"STARLINK-30062"}];
